KUIPER-00062            
1 64522U 25134Y   26066.26914628  .00097041  00000+0  12472-1 0  9999
2 64522  51.8908 241.3250 0001378  72.9133 287.1980 14.80279447 39758
KUIPER-00063            
1 64523U 25134Z   26066.25001157 -.00005889  00000+0 -73644-3 0  9994
2 64523  51.9011 248.8890 0000483  57.6657 240.6535 14.80366771  5710
KUIPER-00064            
1 64524U 25134AA  26066.19675907 -.00040303  00000+0 -53336-2 0  9993
2 64524  51.9017 246.5478 0000610 225.1923 134.8990 14.79584016 39677
KUIPER-00065            
1 64525U 25134AB  26065.51577032  .00003925  00000+0  54384-3 0  9991
2 64525  51.9024 254.7134 0000796  77.5932 282.5119 14.79916148 39488
KUIPER-00066            
1 64526U 25134AC  26066.07768683  .00022353  00000+0  95223-3 0  9991
2 64526  51.8711 196.3663 0001381 303.3265  56.7583 15.22879988 40363
KUIPER-00069            
1 64816U 25151A   26065.60771103  .00001074  00000+0  16995-3 0  9997
2 64816  51.9010 294.2531 0000773  96.8045 263.3005 14.79924623 36306
KUIPER-00070            
1 64817U 25151B   26066.08722192  .00003111  00000+0  43672-3 0  9991
2 64817  51.9012 317.0716 0000347 146.6855 213.4130 14.79942958 36034
KUIPER-00071            
1 64818U 25151C   26065.07658858  .00005142  00000+0  70115-3 0  9995
2 64818  51.9023 319.0558 0000532 246.6524 113.4383 14.80045616 34734
KUIPER-00072            
1 64819U 25151D   26066.01014025 -.00001302  00000+0 -14187-3 0  9996
2 64819  51.8979 294.9179 0001121 101.9085 258.2003 14.79924627 35154
KUIPER-00073            
1 64820U 25151E   26066.05616039  .00004228  00000+0  58326-3 0  9996
2 64820  51.9011 314.7210 0000887 102.7922 257.3139 14.79930601 36068
KUIPER-00074            
1 64821U 25151F   26066.25001157  .01427815  00000+0  93075-1 0  9998
2 64821  51.9062 300.5100 0001145 300.2767  32.6672 15.04619072  4095
KUIPER-00075            
1 64822U 25151G   26065.72954871  .00081712  00000+0  18932-2 0  9991
2 64822  51.8697 236.1878 0003228 256.6713 103.3915 15.41712492 35949
KUIPER-00076            
1 64823U 25151H   26066.05735695  .00004589  00000+0  62229-3 0  9996
2 64823  51.9006 304.6298 0000660  17.5886 342.5099 14.80491605 35025
KUIPER-00077            
1 64824U 25151J   26065.92492936  .00004216  00000+0  57850-3 0  9991
2 64824  51.9027 310.3090 0001231 195.9246 164.1678 14.80166170 34935
KUIPER-00078            
1 64825U 25151K   26066.03047915  .00001823  00000+0  26807-3 0  9997
2 64825  51.9006 307.3476 0000569  91.0083 269.0944 14.79922004 34985
KUIPER-00079            
1 64826U 25151L   26066.12622455  .00000474  00000+0  91121-4 0  9999
2 64826  51.9013 311.8992 0000351  91.2607 268.8395 14.79926001 36126
